start=new Date('2022-07-27T00:00:00.000Z').valueOf();
sats=[{"REF_FRAME":"TEME","INCLINATION":"53.2172","COUNTRY_CODE":"US","OBJECT_NAME":"STARLINK-3979","MEAN_MOTION_DOT":"-0.00029053","OBJECT_ID":"2022-052L","ECCENTRICITY":"0.00020680","ARG_OF_PERICENTER":"51.0783","MEAN_MOTION":"15.08849463","CENTER_NAME":"EARTH","LAUNCH_DATE":"2022-05-14","SITE":"AFETR","MEAN_MOTION_DDOT":"0.0000000000000","OBJECT_TYPE":"PAYLOAD","CLASSIFICATION_TYPE":"U","EPHEMERIS_TYPE":"0","BSTAR":"-0.00181420000000","REV_AT_EPOCH":"130","SEMIMAJOR_AXIS":"6917.851","TLE_LINE2":"2 52608  53.2172  92.7758 0002068  51.0783  91.9990 15.08849463  1300","MEAN_ELEMENT_THEORY":"SGP4","RCS_SIZE":"LARGE","RA_OF_ASC_NODE":"92.7758","FILE":"3522469","TIME_SYSTEM":"UTC","GP_ID":"208932032","APOAPSIS":"541.147","MEAN_ANOMALY":"91.9990","ELEMENT_SET_NO":"999","TLE_LINE1":"1 52608U 22052L   22207.91667824 -.00029053  00000-0 -18142-2 0  9997","PERIAPSIS":"538.286","PERIOD":"95.437","NORAD_CAT_ID":"52608","EPOCH":"2022-07-26T22:00:00.999936","DECAY_DATE":null},{"OBJECT_TYPE":"PAYLOAD","EPHEMERIS_TYPE":"0","CLASSIFICATION_TYPE":"U","CENTER_NAME":"EARTH","LAUNCH_DATE":"2022-05-14","SITE":"AFETR","MEAN_MOTION_DDOT":"0.0000000000000","OBJECT_ID":"2022-052M","ECCENTRICITY":"0.00018940","ARG_OF_PERICENTER":"50.8811","MEAN_MOTION":"15.08837027","REF_FRAME":"TEME","INCLINATION":"53.2203","OBJECT_NAME":"STARLINK-3997","COUNTRY_CODE":"US","MEAN_MOTION_DOT":"-0.00016884","PERIAPSIS":"538.444","PERIOD":"95.438","NORAD_CAT_ID":"52609","EPOCH":"2022-07-26T22:00:00.999936","DECAY_DATE":null,"MEAN_ANOMALY":"127.0286","ELEMENT_SET_NO":"999","TLE_LINE1":"1 52609U 22052M   22207.91667824 -.00016884  00000-0 -10453-2 0  9993","MEAN_ELEMENT_THEORY":"SGP4","RCS_SIZE":"LARGE","RA_OF_ASC_NODE":"92.7790","TIME_SYSTEM":"UTC","FILE":"3522469","GP_ID":"208932146","APOAPSIS":"541.065","BSTAR":"-0.00104530000000","REV_AT_EPOCH":"130","TLE_LINE2":"2 52609  53.2203  92.7790 0001894  50.8811 127.0286 15.08837027  1309","SEMIMAJOR_AXIS":"6917.889"},{"DECAY_DATE":null,"EPOCH":"2022-07-26T22:00:00.999936","PERIOD":"95.437","NORAD_CAT_ID":"52610","PERIAPSIS":"538.371","TLE_LINE1":"1 52610U 22052N   22207.91667824 -.00018659  00000-0 -11570-2 0  9998","ELEMENT_SET_NO":"999","MEAN_ANOMALY":"215.5222","GP_ID":"208932830","APOAPSIS":"541.069","RCS_SIZE":"LARGE","RA_OF_ASC_NODE":"97.7902","TIME_SYSTEM":"UTC","FILE":"3522469","MEAN_ELEMENT_THEORY":"SGP4","SEMIMAJOR_AXIS":"6917.855","TLE_LINE2":"2 52610  53.2150  97.7902 0001950  59.9826 215.5222 15.08848363  1309","BSTAR":"-0.00115700000000","REV_AT_EPOCH":"130","CLASSIFICATION_TYPE":"U","EPHEMERIS_TYPE":"0","OBJECT_TYPE":"PAYLOAD","MEAN_MOTION_DDOT":"0.0000000000000","SITE":"AFETR","LAUNCH_DATE":"2022-05-14","CENTER_NAME":"EARTH","ARG_OF_PERICENTER":"59.9826","MEAN_MOTION":"15.08848363","OBJECT_ID":"2022-052N","ECCENTRICITY":"0.00019500","MEAN_MOTION_DOT":"-0.00018659","OBJECT_NAME":"STARLINK-3998","COUNTRY_CODE":"US","REF_FRAME":"TEME","INCLINATION":"53.2150"},{"ECCENTRICITY":"0.00018970","OBJECT_ID":"2022-052P","MEAN_MOTION":"15.08843678","ARG_OF_PERICENTER":"54.2973","INCLINATION":"53.2155","REF_FRAME":"TEME","COUNTRY_CODE":"US","OBJECT_NAME":"STARLINK-3980","MEAN_MOTION_DOT":"-0.00019441","OBJECT_TYPE":"PAYLOAD","CLASSIFICATION_TYPE":"U","EPHEMERIS_TYPE":"0","CENTER_NAME":"EARTH","LAUNCH_DATE":"2022-05-14","MEAN_MOTION_DDOT":"0.0000000000000","SITE":"AFETR","MEAN_ELEMENT_THEORY":"SGP4","FILE":"3522469","TIME_SYSTEM":"UTC","RCS_SIZE":"LARGE","RA_OF_ASC_NODE":"97.7883","APOAPSIS":"541.046","GP_ID":"208932260","REV_AT_EPOCH":"130","BSTAR":"-0.00120650000000","TLE_LINE2":"2 52611  53.2155  97.7883 0001897  54.2973 261.3000 15.08843678  1301","SEMIMAJOR_AXIS":"6917.869","PERIAPSIS":"538.422","NORAD_CAT_ID":"52611","PERIOD":"95.437","EPOCH":"2022-07-26T22:00:00.999936","DECAY_DATE":null,"MEAN_ANOMALY":"261.3000","ELEMENT_SET_NO":"999","TLE_LINE1":"1 52611U 22052P   22207.91667824 -.00019441  00000-0 -12065-2 0  9999"},{"ARG_OF_PERICENTER":"57.0699","MEAN_MOTION":"15.08025736","OBJECT_ID":"2022-052Q","ECCENTRICITY":"0.00020290","MEAN_MOTION_DOT":"-0.00015480","OBJECT_NAME":"STARLINK-4002","COUNTRY_CODE":"US","REF_FRAME":"TEME","INCLINATION":"53.2181","CLASSIFICATION_TYPE":"U","EPHEMERIS_TYPE":"0","OBJECT_TYPE":"PAYLOAD","SITE":"AFETR","MEAN_MOTION_DDOT":"0.0000000000000","LAUNCH_DATE":"2022-05-14","CENTER_NAME":"EARTH","GP_ID":"208932395","APOAPSIS":"543.640","RCS_SIZE":"LARGE","RA_OF_ASC_NODE":"92.6773","FILE":"3522469","TIME_SYSTEM":"UTC","MEAN_ELEMENT_THEORY":"SGP4","TLE_LINE2":"2 52612  53.2181  92.6773 0002029  57.0699 157.3643 15.08025736  1301","SEMIMAJOR_AXIS":"6920.370","BSTAR":"-0.00097822000000","REV_AT_EPOCH":"130","DECAY_DATE":null,"EPOCH":"2022-07-26T22:00:00.999936","PERIOD":"95.489","NORAD_CAT_ID":"52612","PERIAPSIS":"540.831","TLE_LINE1":"1 52612U 22052Q   22207.91667824 -.00015480  00000-0 -97822-3 0  9994","ELEMENT_SET_NO":"999","MEAN_ANOMALY":"157.3643"},{"OBJECT_ID":"2022-052R","ECCENTRICITY":"0.00014510","ARG_OF_PERICENTER":"77.9084","MEAN_MOTION":"15.15971082","MEAN_MOTION_DOT":"-0.01073424","REF_FRAME":"TEME","INCLINATION":"53.2174","COUNTRY_CODE":"US","OBJECT_NAME":"STARLINK-3921","OBJECT_TYPE":"PAYLOAD","CLASSIFICATION_TYPE":"U","EPHEMERIS_TYPE":"0","LAUNCH_DATE":"2022-05-14","MEAN_MOTION_DDOT":"0.0000000000000","SITE":"AFETR","CENTER_NAME":"EARTH","RCS_SIZE":"LARGE","RA_OF_ASC_NODE":"82.8911","TIME_SYSTEM":"UTC","FILE":"3522469","GP_ID":"208932509","APOAPSIS":"519.035","MEAN_ELEMENT_THEORY":"SGP4","BSTAR":"-0.05965800000000","REV_AT_EPOCH":"130","TLE_LINE2":"2 52613  53.2174  82.8911 0001451  77.9084 139.8948 15.15971082  1301","SEMIMAJOR_AXIS":"6896.169","EPOCH":"2022-07-26T22:00:00.999936","DECAY_DATE":null,"PERIAPSIS":"517.033","PERIOD":"94.989","NORAD_CAT_ID":"52613","ELEMENT_SET_NO":"999","TLE_LINE1":"1 52613U 22052R   22207.91667824 -.01073424  00000-0 -59658-1 0  9991","MEAN_ANOMALY":"139.8948"},{"PERIAPSIS":"517.851","NORAD_CAT_ID":"52614","PERIOD":"95.007","EPOCH":"2022-07-26T22:00:00.999936","DECAY_DATE":null,"MEAN_ANOMALY":"138.0467","ELEMENT_SET_NO":"999","TLE_LINE1":"1 52614U 22052S   22207.91667824 -.01073546  00000-0 -60170-1 0  9998","MEAN_ELEMENT_THEORY":"SGP4","TIME_SYSTEM":"UTC","FILE":"3522469","RA_OF_ASC_NODE":"82.8871","RCS_SIZE":"LARGE","APOAPSIS":"520.007","GP_ID":"208932738","REV_AT_EPOCH":"130","BSTAR":"-0.06017000000000","SEMIMAJOR_AXIS":"6897.064","TLE_LINE2":"2 52614  53.2174  82.8871 0001563  63.0160 138.0467 15.15675925  1306","OBJECT_TYPE":"PAYLOAD","EPHEMERIS_TYPE":"0","CLASSIFICATION_TYPE":"U","CENTER_NAME":"EARTH","LAUNCH_DATE":"2022-05-14","SITE":"AFETR","MEAN_MOTION_DDOT":"0.0000000000000","ECCENTRICITY":"0.00015630","OBJECT_ID":"2022-052S","MEAN_MOTION":"15.15675925","ARG_OF_PERICENTER":"63.0160","INCLINATION":"53.2174","REF_FRAME":"TEME","OBJECT_NAME":"STARLINK-3982","COUNTRY_CODE":"US","MEAN_MOTION_DOT":"-0.01073546"},{"REV_AT_EPOCH":"130","BSTAR":"-0.00406940000000","TLE_LINE2":"2 52615  53.2152  97.7871 0001737  62.9986 272.5859 15.08874676  1300","SEMIMAJOR_AXIS":"6917.774","TIME_SYSTEM":"UTC","FILE":"3522469","RCS_SIZE":"LARGE","RA_OF_ASC_NODE":"97.7871","APOAPSIS":"540.841","GP_ID":"208932623","MEAN_ELEMENT_THEORY":"SGP4","ELEMENT_SET_NO":"999","TLE_LINE1":"1 52615U 22052T   22207.91667824 -.00064534  00000-0 -40694-2 0  9995","MEAN_ANOMALY":"272.5859","EPOCH":"2022-07-26T22:00:00.999936","DECAY_DATE":null,"PERIAPSIS":"538.438","NORAD_CAT_ID":"52615","PERIOD":"95.435","MEAN_MOTION_DOT":"-0.00064534","INCLINATION":"53.2152","REF_FRAME":"TEME","COUNTRY_CODE":"US","OBJECT_NAME":"STARLINK-4011","ECCENTRICITY":"0.00017370","OBJECT_ID":"2022-052T","MEAN_MOTION":"15.08874676","ARG_OF_PERICENTER":"62.9986","LAUNCH_DATE":"2022-05-14","SITE":"AFETR","MEAN_MOTION_DDOT":"0.0000000000000","CENTER_NAME":"EARTH","OBJECT_TYPE":"PAYLOAD","CLASSIFICATION_TYPE":"U","EPHEMERIS_TYPE":"0"},{"OBJECT_ID":"2022-052U","ECCENTRICITY":"0.00016170","ARG_OF_PERICENTER":"56.0924","MEAN_MOTION":"15.16266226","MEAN_MOTION_DOT":"-0.01073256","REF_FRAME":"TEME","INCLINATION":"53.2173","COUNTRY_CODE":"US","OBJECT_NAME":"STARLINK-4015","OBJECT_TYPE":"PAYLOAD","EPHEMERIS_TYPE":"0","CLASSIFICATION_TYPE":"U","LAUNCH_DATE":"2022-05-14","SITE":"AFETR","MEAN_MOTION_DDOT":"0.0000000000000","CENTER_NAME":"EARTH","RCS_SIZE":"LARGE","RA_OF_ASC_NODE":"82.8951","TIME_SYSTEM":"UTC","FILE":"3522469","GP_ID":"208932033","APOAPSIS":"518.254","MEAN_ELEMENT_THEORY":"SGP4","BSTAR":"-0.05914400000000","REV_AT_EPOCH":"130","TLE_LINE2":"2 52616  53.2173  82.8951 0001617  56.0924 178.3133 15.16266226  1304","SEMIMAJOR_AXIS":"6895.274","EPOCH":"2022-07-26T22:00:00.999936","DECAY_DATE":null,"PERIAPSIS":"516.024","PERIOD":"94.970","NORAD_CAT_ID":"52616","ELEMENT_SET_NO":"999","TLE_LINE1":"1 52616U 22052U   22207.91667824 -.01073256  00000-0 -59144-1 0  9997","MEAN_ANOMALY":"178.3133"},{"SITE":"AFETR","MEAN_MOTION_DDOT":"0.0000000000000","LAUNCH_DATE":"2022-05-14","CENTER_NAME":"EARTH","EPHEMERIS_TYPE":"0","CLASSIFICATION_TYPE":"U","OBJECT_TYPE":"PAYLOAD","MEAN_MOTION_DOT":"-0.01061988","COUNTRY_CODE":"US","OBJECT_NAME":"STARLINK-3996","INCLINATION":"53.2174","REF_FRAME":"TEME","MEAN_MOTION":"15.22069893","ARG_OF_PERICENTER":"72.9888","ECCENTRICITY":"0.00014580","OBJECT_ID":"2022-052V","TLE_LINE1":"1 52617U 22052V   22207.91667824 -.01061988  00000-0 -50044-1 0  9997","ELEMENT_SET_NO":"999","MEAN_ANOMALY":"130.0409","DECAY_DATE":null,"EPOCH":"2022-07-26T22:00:00.999936","NORAD_CAT_ID":"52617","PERIOD":"94.608","PERIAPSIS":"498.597","SEMIMAJOR_AXIS":"6877.735","TLE_LINE2":"2 52617  53.2174  82.3494 0001458  72.9888 130.0409 15.22069893  1301","REV_AT_EPOCH":"130","BSTAR":"-0.05004400000000","APOAPSIS":"500.603","GP_ID":"208932147","FILE":"3522469","TIME_SYSTEM":"UTC","RCS_SIZE":"LARGE","RA_OF_ASC_NODE":"82.3494","MEAN_ELEMENT_THEORY":"SGP4"}];
